DMSP 5D-3 F16 (USA 172) 
1 28054U 03048A   26116.54505458  .00000083  00000+0  67231-4 0  9999
2 28054  98.9931 140.0228 0005990 297.5904 216.2257 14.14477122162182
METEOSAT-9 (MSG-2)      
1 28912U 05049B   26115.93261958  .00000116  00000+0  00000+0 0  9994
2 28912   9.2466  54.6723 0000497 356.0130 184.6448  1.00274462  6474
DMSP 5D-3 F17 (USA 191) 
1 29522U 06050A   26116.47950352  .00000130  00000+0  89678-4 0  9997
2 29522  98.7396 124.1055 0009653 197.2853 162.7994 14.14982757  5113
FENGYUN 3A              
1 32958U 08026A   26116.45314009  .00000080  00000+0  58445-4 0  9992
2 32958  98.6855  58.2630 0007583 278.9945  81.0372 14.19559723928063
GOES 14                 
1 35491U 09033A   26116.49489222 -.00000058  00000+0  00000+0 0  9995
2 35491   1.5586  83.6308 0001739 313.0723 166.7089  1.00116570  6077
DMSP 5D-3 F18 (USA 210) 
1 35951U 09057A   26116.44719007  .00000279  00000+0  16744-3 0  9994
2 35951  98.9016  97.3377 0011904  42.5497 317.6596 14.14866248852275
EWS-G2 (GOES 15)        
1 36411U 10008A   26116.50654655  .00000011  00000+0  00000+0 0  9996
2 36411   1.1417  83.7896 0003975  23.7725 352.5592  1.00272457 59128
COMS 1                  
1 36744U 10032A   26116.37676595 -.00000353  00000+0  00000+0 0  9994
2 36744   4.6739  76.0456 0001050 308.9312  93.1775  1.00272579 50577
FENGYUN 3B              
1 37214U 10059A   26116.55715038  .00000445  00000+0  25357-3 0  9999
2 37214  98.9674 162.3416 0021665 335.8658 185.2567 14.14831055800120
SUOMI NPP               
1 37849U 11061A   26116.53307422  .00000079  00000+0  58305-4 0  9992
2 37849  98.7925  57.7709 0002764 102.8103 257.3382 14.19505962751119
METEOSAT-10 (MSG-3)     
1 38552U 12035B   26116.20880727 -.00000016  00000+0  00000+0 0  9990
2 38552   4.5512  61.2390 0002074 311.7157 276.6159  1.00267862 50330
METOP-B                 
1 38771U 12049A   26116.45183696  .00000103  00000+0  67034-4 0  9997
2 38771  98.6549 168.9722 0003399 124.0628 236.0873 14.21433153705919
INSAT-3D                
1 39216U 13038B   26116.37702595 -.00000350  00000+0  00000+0 0  9997
2 39216   1.7940  83.1599 0001509 280.9198 115.5536  1.00272106 46567
FENGYUN 3C              
1 39260U 13052A   26116.52252545  .00000098  00000+0  70967-4 0  9996
2 39260  98.4956  92.7803 0014821 167.5612 192.5932 14.15742603651259
METEOR-M 2              
1 40069U 14037A   26116.54940350  .00000346  00000+0  17752-3 0  9997
2 40069  98.5086  94.1269 0005563 175.1224 185.0009 14.21447287611987
HIMAWARI-8              
1 40267U 14060A   26116.51711252  .00000000  00000+0  00000+0 0  9998
2 40267   0.0242 102.5212 0000908 293.5739 145.2567  1.00268561 42248
FENGYUN 2G              
1 40367U 14090A   26115.87203934 -.00000313  00000+0  00000+0 0  9991
2 40367   5.5091  73.4313 0002968 146.1556  48.0199  1.00272778 41477
METEOSAT-11 (MSG-4)     
1 40732U 15034A   26116.28204089  .00000053  00000+0  00000+0 0  9994
2 40732   3.0719  71.3786 0001597 344.6611 269.3715  1.00263970  6699
ELEKTRO-L 2             
1 41105U 15074A   26116.20586059 -.00000126  00000+0  00000+0 0  9997
2 41105   6.5659  71.1488 0002269 255.6194 307.0430  1.00270527 37982
INSAT-3DR               
1 41752U 16054A   26116.19280867 -.00000090  00000+0  00000+0 0  9990
2 41752   0.1134  86.1839 0011648 195.1321  76.2833  1.00271343 35296
HIMAWARI-9              
1 41836U 16064A   26116.51711252 -.00000287  00000+0  00000+0 0  9995
2 41836   0.0373 125.0471 0000856 280.6948 135.7012  1.00272052 34693
GOES 16                 
1 41866U 16071A   26116.52834772 -.00000103  00000+0  00000+0 0  9997
2 41866   0.2120  85.2831 0001506 249.7867 324.9509  1.00271169 34583
FENGYUN 4A              
1 41882U 16077A   26115.30638583 -.00000369  00000+0  00000+0 0  9992
2 41882   2.1903  80.7930 0008212 141.4993 225.0593  1.00267100 34405
CYGFM05                 
1 41884U 16078A   26116.45128440  .00027053  00000+0  39802-3 0  9992
2 41884  34.9568 242.5812 0007167  21.1703 338.9316 15.54414690520695
CYGFM04                 
1 41885U 16078B   26116.50838338  .00032923  00000+0  41324-3 0  9997
2 41885  34.9324 212.3243 0006043  68.7628 291.3742 15.58651286520923
CYGFM02                 
1 41886U 16078C   26116.53209682  .00036390  00000+0  41698-3 0  9991
2 41886  34.9407 208.0204 0007147  69.7890 290.3603 15.61006643521081
CYGFM01                 
1 41887U 16078D   26116.46132826  .00027852  00000+0  40072-3 0  9997
2 41887  34.9400 243.9716 0006880  14.2770 345.8147 15.55019017520648
CYGFM08                 
1 41888U 16078E   26116.50369439  .00030677  00000+0  40427-3 0  9998
2 41888  34.9431 224.5392 0008083  47.2437 312.8967 15.57354115520907
CYGFM07                 
1 41890U 16078G   26116.46592464  .00030057  00000+0  39517-3 0  9992
2 41890  34.9446 213.1735 0006489  66.6343 293.5063 15.57433411520921
CYGFM03                 
1 41891U 16078H   26116.56506242  .00030452  00000+0  40020-3 0  9993
2 41891  34.9402 214.4720 0005790  53.9962 306.1299 15.57447054520911
FENGYUN 3D              
1 43010U 17072A   26116.48912596  .00000136  00000+0  86180-4 0  9991
2 43010  99.0095  89.9879 0001382 153.6023 206.5223 14.19727914437656
NOAA 20 (JPSS-1)        
1 43013U 17073A   26116.47616957  .00000060  00000+0  49505-4 0  9992
2 43013  98.7745  56.4052 0002100  72.5272 287.6133 14.19547625437135
GOES 17                 
1 43226U 18022A   26116.47629977 -.00000194  00000+0  00000+0 0  9990
2 43226   0.8069  86.4035 0000656 273.4258 296.6261  1.00272021 29903
FENGYUN 2H              
1 43491U 18050A   26116.50966657 -.00000139  00000+0  00000+0 0  9997
2 43491   2.9004  79.6515 0001719 159.6578 237.9355  1.00274286 28925
METOP-C                 
1 43689U 18087A   26116.47384854  .00000107  00000+0  68879-4 0  9992
2 43689  98.6680 177.0136 0000830  40.3542 319.7697 14.21511800387488
GEO-KOMPSAT-2A          
1 43823U 18100A   26116.41780597 -.00000356  00000+0  00000+0 0  9990
2 43823   0.0570  67.3279 0001977 357.6697  68.0988  1.00271204 27112
METEOR-M2 2             
1 44387U 19038A   26116.47297736  .00000084  00000+0  56388-4 0  9993
2 44387  98.9133 103.0021 0001743 126.7987 233.3351 14.24351008353934
ARKTIKA-M 1             
1 47719U 21016A   26113.16409645 -.00000101  00000+0  00000+0 0  9997
2 47719  63.2246  65.5569 7266494 269.6808  14.9538  2.00609676 37686
FENGYUN 3E              
1 49008U 21062A   26116.54934144  .00000345  00000+0  18329-3 0  9999
2 49008  98.7512 120.5326 0000774 195.1286 164.9867 14.19900823249254
GOES 18                 
1 51850U 22021A   26116.37378130  .00000084  00000+0  00000+0 0  9994
2 51850   0.0261  86.4448 0000457   2.5991 122.8889  1.00272543  6071
NOAA 21 (JPSS-2)        
1 54234U 22150A   26116.43992442  .00000072  00000+0  54590-4 0  9996
2 54234  98.7033  56.1056 0001826  22.3565 337.7690 14.19555691179203
METEOSAT-12 (MTG-I1)    
1 54743U 22170C   26116.35119918 -.00000020  00000+0  00000+0 0  9999
2 54743   0.7238  22.3142 0001116 332.3843 345.7586  1.00269432 12451
TIANMU-1 03             
1 55973U 23039A   26116.48153823  .00017987  00000+0  37297-3 0  9998
2 55973  97.5218 288.4918 0001641 282.0137  78.0928 15.45786693172848
TIANMU-1 04             
1 55974U 23039B   26116.49007896  .00018805  00000+0  38262-3 0  9991
2 55974  97.5153 287.6535 0002294 275.6537  84.4450 15.46331724172854
TIANMU-1 05             
1 55975U 23039C   26116.52474303  .00017997  00000+0  37397-3 0  9996
2 55975  97.5198 288.1704 0001616 325.0449  35.0693 15.45725348172834
TIANMU-1 06             
1 55976U 23039D   26116.49063766  .00018349  00000+0  37434-3 0  9994
2 55976  97.5207 288.7202 0001791 311.7247  48.3849 15.46258648172854
FENGYUN 3G              
1 56232U 23055A   26116.51159641  .00031398  00000+0  50977-3 0  9995
2 56232  49.9927 252.5276 0005978 322.7604  37.2948 15.52381049171978
METEOR-M2 3             
1 57166U 23091A   26116.52587606  .00000005  00000+0  21202-4 0  9990
2 57166  98.6123 172.5504 0003262 336.7240  23.3791 14.24042256147162
TIANMU-1 07             
1 57399U 23101A   26116.48176595  .00007568  00000+0  26920-3 0  9998
2 57399  97.2641 168.3480 0001437  13.1906 346.9372 15.29254660153743
TIANMU-1 08             
1 57400U 23101B   26116.51469924  .00009015  00000+0  31980-3 0  9997
2 57400  97.2630 168.1565 0002292 318.1016  42.0049 15.29285637153749
TIANMU-1 09             
1 57401U 23101C   26116.49841513  .00007707  00000+0  27376-3 0  9993
2 57401  97.2589 167.5847 0001944   4.9536 355.1723 15.29292071153746
TIANMU-1 10             
1 57402U 23101D   26116.46568422  .00007676  00000+0  27238-3 0  9998
2 57402  97.2667 168.5491 0002866 339.1689  20.9435 15.29326866153732
FENGYUN 3F              
1 57490U 23111A   26116.46391933  .00000058  00000+0  47525-4 0  9996
2 57490  98.6861 187.4307 0000898 113.1072 247.0199 14.19929703141525
ARKTIKA-M 2             
1 58584U 23198A   26110.92958556  .00000217  00000+0  00000+0 0  9990
2 58584  63.2192 160.7194 6953303 267.0904  18.4710  2.00586979 17173
TIANMU-1 11             
1 58645U 23205A   26116.53723132  .00006507  00000+0  25218-3 0  9990
2 58645  97.3490 138.9180 0009124 174.7770 185.3566 15.26449346129641
TIANMU-1 12             
1 58646U 23205B   26116.50609441  .00006395  00000+0  24835-3 0  9993
2 58646  97.3478 138.6542 0007976 156.8703 203.2896 15.26394576129625
TIANMU-1 13             
1 58647U 23205C   26116.53538019  .00006802  00000+0  26347-3 0  9992
2 58647  97.3506 138.9430 0008787 140.9865 219.2009 15.26448230129621
TIANMU-1 14             
1 58648U 23205D   26116.52077440  .00006712  00000+0  26023-3 0  9999
2 58648  97.3440 138.1544 0009386 145.6599 214.5249 15.26420105129624
TIANMU-1 19             
1 58660U 23208A   26116.52818130  .00010931  00000+0  37004-3 0  9994
2 58660  97.4436 232.6153 0006293 131.7123 228.4657 15.30752090129424
TIANMU-1 20             
1 58661U 23208B   26116.47548248  .00011273  00000+0  36759-3 0  9995
2 58661  97.4377 233.1445 0008294 141.0414 219.1427 15.31939601129506
TIANMU-1 21             
1 58662U 23208C   26116.47403001  .00013182  00000+0  40115-3 0  9995
2 58662  97.4435 235.6065 0008294 135.9722 224.2182 15.34108030129637
TIANMU-1 22             
1 58663U 23208D   26116.55895733  .00009384  00000+0  32266-3 0  9999
2 58663  97.4433 232.6234 0004660 147.5701 212.5826 15.30297100129436
TIANMU-1 15             
1 58700U 24004A   26116.51777961  .00007487  00000+0  28975-3 0  9998
2 58700  97.4680 302.7170 0007601 159.8286 200.3254 15.26460138127898
TIANMU-1 16             
1 58701U 24004B   26116.50011557  .00007047  00000+0  27268-3 0  9996
2 58701  97.4625 301.9894 0005972 159.5808 200.5670 15.26497909127898
TIANMU-1 17             
1 58702U 24004C   26116.54972501  .00007114  00000+0  27652-3 0  9998
2 58702  97.4654 302.5076 0005757 164.1024 196.0396 15.26346227127893
TIANMU-1 18             
1 58703U 24004D   26116.53405321  .00006814  00000+0  26413-3 0  9999
2 58703  97.4673 302.7168 0004662 155.2224 204.9239 15.26459450127894
INSAT-3DS               
1 58990U 24033A   26116.51027323 -.00000168  00000+0  00000+0 0  9996
2 58990   0.0913  86.7241 0001937 299.4463  94.1071  1.00270689 46556
METEOR-M2 4             
1 59051U 24039A   26116.55229955  .00000024  00000+0  30601-4 0  9995
2 59051  98.6975  76.5108 0006454 327.8914  32.1870 14.22423948111920
GOES 19                 
1 60133U 24119A   26116.47907310 -.00000261  00000+0  00000+0 0  9995
2 60133   0.0294  93.6133 0000417 353.3720 224.7600  1.00272780  6442
FENGYUN 3H              
1 65815U 25219A   26116.45971550  .00000064  00000+0  50606-4 0  9996
2 65815  98.6741  58.2432 0000832 105.8699 254.2569 14.19944013 30043
